#dP2021  4  1  6  0  0.00000000      96 __u+U ITR00 EXT  IAC
## 2151 367200.00000000   900.00000000 59305 0.2500000000000
+  116   C06C07C08C09C10C11C12C13C14C16C19C20C21C22C23C24C25
+        C26C27C28C29C30C32C33C34C35C36C37C38C39C41C42C43C44
+        C45C46E01E02E03E04E05E07E08E09E11E12E13E14E15E18E19
+        E21E24E25E26E27E30E31E33E36G01G02G03G04G05G06G07G08
+        G09G10G11G12G13G14G15G16G17G18G19G20G21G22G23G24G25
+        G26G27G28G29G30G31G32J01J02J03R01R02R03R04R05R07R08
+        R09R11R12R13R14R15R16R17R18R19R20R21R22R24  0  0  0
++        12 10 10 10 10 10  9 10 10  9  8  9  9  8  8 11  9
++         9  8 10  7  9 10 11 10 10  8 10 10 12 11  9  8  9
++         9 10  8  8  8  8  9  8  8  9 11  9  7  8  7  8  8
++         8  8  8  8  9  8  9  9  9  7  8  8  8  8  7  9  8
++         8  8  9  7  8  8  8  9  7  9  8  7  8  8  7  8  8
++         8  7  8  8  8  8  8 10 11 10  8  9  9  8  9  9  9
++         8  9  8  9  8  9  8 10 10  8  8  9  8  9  0  0  0
%c M  cc GPS ccc cccc cccc cccc cccc ccccc ccccc ccccc ccccc
%c cc cc ccc ccc cccc cccc cccc cccc ccccc ccccc ccccc ccccc
%f  0.0000000  0.000000000  0.00000000000  0.000000000000000
%f  0.0000000  0.000000000  0.00000000000  0.000000000000000
%i    0    0    0    0      0      0      0      0         0
%i    0    0    0    0      0      0      0      0         0
/* IAC                                ULTRA-RAPID PREDICTION
/* S/V CLOCKS ARE ALIGNED TO GNSS TIME                      
/* G:C1WC2W R:C1PC2P E:C1XC5X C:C2IC6I J:C1CC2S             
/* PCV:IGS14_2134 OL/AL:FES2004  NONE     YN ORB:CoN CLK:CoN
*  2021 04 01 13 30  0.00000000
PC06 -25327.225630  29691.798603 -16097.995357    234.185633
PC07 -11429.327162  35068.576470 -19711.543511    -76.075093
PC08 -11494.941538  18091.577993  36408.390043   -895.156496
PC09 -11716.194077  29475.510465 -27698.521665    627.056934
PC10   -512.776581  41168.854512  -7738.526293    -62.941558
PC11 -23109.704135   -695.828106 -15541.771940   -834.769849
PC12  -8061.117957 -13095.368598 -23252.416335    909.664803
PC13   3338.304662  25280.703704  33739.911350    203.976467
PC14 -14995.701735  -7734.729066  22266.338582    356.829147
PC16 -21453.852320  30411.694602 -19894.581602   -761.923003
PC19  15923.203454  -3811.177754 -22568.620219    782.860238
PC20  12129.438821  16270.646411 -19119.614583   -943.016273
PC21   -847.300610 -27611.088197   4064.600345   -916.948619
PC22  10639.232151 -22286.756800 -13013.914928   -942.786495
PC23 -11448.591626  11721.511737 -22589.896417   -882.551192
PC24 -21663.654651 -17352.116974   2735.531032   -799.968523
PC25 -23544.971097  -2888.181977 -14688.263804   -939.322014
PC26  -8474.527935 -20231.717543  17221.652584    927.196468
PC27  -2184.458634  17459.785830  21646.064750    508.261744
PC28 -20028.184783  16749.701238   9854.158919    -91.462487
PC29  25836.672036  -7205.061710   7679.814897    372.917398
PC30  16776.474914   7695.418945  20917.023114    456.922633
PC32   1018.667705  27590.161606  -4003.566838   -927.475547
PC33 -15954.622326   3762.085342  22593.291555   -943.087352
PC34 -17403.576498  -7234.347163 -20598.038875   -705.774483
PC35  19623.172987 -17355.915362  -9564.673124   -347.451830
PC36  23599.464984   3736.611966  14438.769679   -735.380000
PC37   7200.638627  20298.983854 -17742.238985   -886.948612
PC38  -8712.700336  22021.035541  34919.772653    139.513081
PC39 -17940.809799  31849.357011 -21123.522589     29.931862
PC41 -10780.241955  22071.953764  13300.579713   -937.766159
PC42 -11911.404880 -16953.248131  18748.691980   -931.159117
PC43 -25869.942475   6682.481437  -8109.605361   -665.811900
PC44   1693.071554 -17679.773248 -21523.253126    115.539519
PC45  11297.198369 -11692.625136  22681.257339    402.242022
PC46  22169.048711  16880.009627  -1866.766799    336.244894
PE01   2739.397245  25615.193551 -14591.454004  -1077.808011
PE02  -2828.214073 -25639.995087  14494.429910    209.095915
PE03   7984.439130 -26712.650964   9963.635634   -415.324483
PE04   8060.530922  17426.002164 -22519.924598   -741.064980
PE05  19583.604462 -20445.581009  -8636.797244   -292.339672
PE07 -19648.772744   2311.915528  22022.790459   -520.146991
PE08  -8277.021115 -17069.759291  22729.030720   6024.295911
PE09  19579.740660  -2681.439665 -22034.236455   5715.410831
PE11  29377.325934   2210.128755   2740.930722   6142.109947
PE12  17773.448806  13129.129045  19685.763933   5281.355226
PE13 -29341.446788  -2368.693308  -3164.133783    414.395230
PE14  19976.599476  -1953.255070  15018.654882  -1381.921358
PE15 -17883.816256 -12981.643566 -19689.752574    821.689104
PE18 -19553.104191  -8075.835215 -23283.143296  -1511.526687
PE19  -9760.729744  26782.259001  -7974.341544    241.383656
PE21 -11792.388518  12377.049105 -24171.223985   -656.881673
PE24  20125.418200   9358.884798  19581.307697   -823.865575
PE25  11923.323678 -12178.461273  24200.687543   -529.897103
PE26 -23008.996660   9999.593719  15719.629220   1974.834473
PE27 -20045.192780  -8492.037456 -20051.558277     -1.931295
PE30 -15940.249318 -24705.137126  -3352.684244   3060.087067
PE31  16468.917793  24244.294602   4173.683507   -479.734276
PE33  -4105.403329  15941.966493  24608.896045   -467.104815
PE36  23496.877877  -9621.244498 -15197.561561   -187.814501
PG01 -18214.447505 -13894.233068 -13983.729421    727.296105
PG02  -6074.997116  14579.014655  22016.825861   -591.660930
PG03 -12950.664654 -21492.830063   8791.208997   -124.531740
PG04  -8589.962871 -12808.975497  21626.500794   -189.508464
PG05   3245.258543  25167.742830   7370.482466    -37.851830
PG06 -18761.648916   7530.905943  17321.176693      4.228847
PG07 -25804.754775  -7249.072806   1547.180873    108.571043
PG08  -1332.346227 -18249.501594 -19141.410565    -15.904067
PG09 -17012.917457  -2498.797179  20188.812490   -335.676208
PG10  13886.594248  -5768.359522 -21768.208986    -93.061102
PG11 -13380.082193 -12193.872863 -19782.932236     17.435209
PG12   9594.921619  24119.702125   5741.514516    -21.966456
PG13  -8992.841429  20388.132449 -14488.618733    114.693342
PG14 -14640.425134   4450.542425 -21721.388445     98.551113
PG15   4245.912653  18257.907204 -19045.016702   -159.161151
PG16   1686.948885 -24267.621648   9839.950015   -302.952343
PG17 -21540.618301  12626.515882  -8624.094355    419.327874
PG18  26046.768484   4678.872268  -2627.440987    351.434415
PG19 -20513.228359  16753.361993  -1288.598368    -18.683258
PG20  18042.393927  13378.281866 -14381.618015    523.616726
PG21 -11779.013583 -14742.421591 -18154.176338    107.678647
PG22 -10017.111738 -24698.480895   -403.779960   -647.773454
PG23  16627.855039   6340.567382 -19749.802180    115.584244
PG24  13712.532845  15145.000250 -17418.300854      0.339447
PG25  15966.702920  13886.975883  15955.756009    110.189281
PG26   7097.007535 -18353.853760  17660.009113     66.182749
PG27   9810.234366 -21812.595299 -11307.370934   -104.805847
PG28 -13360.275457   7022.756606 -21319.536614    593.401840
PG29  16902.659450   2658.902765  20280.022917   -322.311522
PG30 -24182.986474   2135.089416 -10987.706503   -406.756904
PG31  16920.367575  -9113.823983  18445.295152   -109.035347
PG32  20656.406577 -14657.300602  -7593.811119     21.918257
PJ01 -29931.961773  26283.295180  18767.272770   -360.635337
PJ02 -20660.006906  20530.585070 -26033.108830      4.521884
PJ03 -30478.558062  28473.741707  11334.227749     -2.629528
PR01 -11902.780816   3427.586307  22302.288465     77.243508
PR02 -10190.658918  21727.149752   8776.705663    473.118849
PR03  -2080.755214  23916.289020  -8651.236155     33.437682
PR04   6897.412276  12529.233275 -21091.505230     80.455961
PR05  12085.825089  -5753.021565 -21694.255999     69.216564
PR07   1662.872702 -23645.092569   9408.358132    -42.554045
PR08  -7092.448042 -12458.891979  21151.685442    -58.284351
PR09   5526.859779 -10224.911531  22723.988878    -14.220683
PR11 -19007.703003 -16886.425815  -2111.379439      1.651718
PR12 -17323.351691  -5025.257108 -18004.454164    217.324337
PR13  -5866.408084   9556.997541 -22931.787934    -52.805567
PR14   9518.312153  18948.351892 -14164.351740     62.671180
PR15  18878.627005  16965.293624   2575.985432    104.610357
PR16  17185.842475   3837.108289  18485.675991    -13.246672
PR17  -1557.569803  11169.422418  22884.832354    412.737817
PR18  15546.280805   5024.420137  19580.770633     71.759982
PR19  24492.010887  -2759.649040   6565.625156   -138.047044
PR20  19200.986555 -10443.682368 -13099.804066    -46.441298
PR21    374.616231 -10839.101012 -23088.440866   -198.610138
PR22 -16566.465239  -4484.909525 -18927.443783   -105.603090
PR24 -18484.246799  11153.175853  13599.228693     37.199986
EOF
